ORBCOMM FM20            
1 25416U 98046D   24237.86753707  .00002457  00000+0  89178-3 0  9999
2 25416  44.9936 143.1204 0000801 346.4389  13.6436 14.35665976361652
ORBCOMM FM16            
1 25417U 98046E   24237.88730739  .00003272  00000+0  11450-2 0  9995
2 25417  44.9928 137.9367 0003272 258.3290 101.7191 14.36806684361608
ORBCOMM FM15            
1 25418U 98046F   24237.86517391  .00003103  00000+0  10950-2 0  9998
2 25418  44.9961 142.3620 0003015 263.8904  96.1600 14.36506857361607
ORBCOMM FM14            
1 25419U 98046G   24237.87555707  .00003068  00000+0  10786-2 0  9990
2 25419  44.9953 141.2618 0001684 257.4236 102.6424 14.36725465361561
ORBCOMM FM13            
1 25420U 98046H   24237.90852553  .00002780  00000+0  99793-3 0  9991
2 25420  44.9969 146.6150 0003947 239.4708 120.5750 14.35903200360629
ORBCOMM FM21            
1 25475U 98053A   24237.72710988  .00002285  00000+0  83129-3 0  9990
2 25475  45.0067 231.9641 0002052 278.5263  81.5351 14.35772077354610
ORBCOMM FM22            
1 25476U 98053B   24237.66254761  .00003103  00000+0  10977-2 0  9996
2 25476  45.0063 229.0859 0001942 235.0576 125.0090 14.36389447354607
ORBCOMM FM23            
1 25477U 98053C   24237.68230588  .00002730  00000+0  98261-3 0  9998
2 25477  45.0069 234.5641 0001904 249.7385 110.3258 14.35813177354752
